[
  {
    "OBJECT_NAME": "SKYSAT-B",
    "OBJECT_ID": "2014-037D",
    "EPOCH": "2025-04-21T17:44:32.021664",
    "MEAN_MOTION": 14.86355983,
    "ECCENTRICITY": 0.0005294,
    "INCLINATION": 98.3396,
    "RA_OF_ASC_NODE": 43.6545,
    "ARG_OF_PERICENTER": 190.56,
    "MEAN_ANOMALY": 169.5503,
    "EPHEMERIS_TYPE": 0,
    "CLASSIFICATION_TYPE": "U",
    "NORAD_CAT_ID": 40072,
    "ELEMENT_SET_NO": 999,
    "REV_AT_EPOCH": 58332,
    "BSTAR": 0.00032492,
    "MEAN_MOTION_DOT": 0.00002805,
    "MEAN_MOTION_DDOT": 0
  },
  {
    "OBJECT_NAME": "WORLDVIEW-3 (WV-3)",
    "OBJECT_ID": "2014-048A",
    "EPOCH": "2025-04-22T04:25:45.110496",
    "MEAN_MOTION": 14.85076859,
    "ECCENTRICITY": 0.000385,
    "INCLINATION": 97.8598,
    "RA_OF_ASC_NODE": 187.3012,
    "ARG_OF_PERICENTER": 268.0815,
    "MEAN_ANOMALY": 91.9959,
    "EPHEMERIS_TYPE": 0,
    "CLASSIFICATION_TYPE": "U",
    "NORAD_CAT_ID": 40115,
    "ELEMENT_SET_NO": 999,
    "REV_AT_EPOCH": 57945,
    "BSTAR": 0.00023059,
    "MEAN_MOTION_DOT": 0.00001917,
    "MEAN_MOTION_DDOT": 0
  },
  {
    "OBJECT_NAME": "GAOFEN-2",
    "OBJECT_ID": "2014-049A",
    "EPOCH": "2025-04-22T04:57:31.148064",
    "MEAN_MOTION": 14.806105,
    "ECCENTRICITY": 0.000665,
    "INCLINATION": 98.064,
    "RA_OF_ASC_NODE": 170.5785,
    "ARG_OF_PERICENTER": 131.2135,
    "MEAN_ANOMALY": 228.9651,
    "EPHEMERIS_TYPE": 0,
    "CLASSIFICATION_TYPE": "U",
    "NORAD_CAT_ID": 40118,
    "ELEMENT_SET_NO": 999,
    "REV_AT_EPOCH": 57695,
    "BSTAR": 0.00027659,
    "MEAN_MOTION_DOT": 0.0000207,
    "MEAN_MOTION_DDOT": 0
  },
  {
    "OBJECT_NAME": "YAOGAN-21",
    "OBJECT_ID": "2014-053A",
    "EPOCH": "2025-04-22T04:05:06.061920",
    "MEAN_MOTION": 15.23800971,
    "ECCENTRICITY": 0.0015528,
    "INCLINATION": 97.2046,
    "RA_OF_ASC_NODE": 165.1189,
    "ARG_OF_PERICENTER": 185.7659,
    "MEAN_ANOMALY": 174.3403,
    "EPHEMERIS_TYPE": 0,
    "CLASSIFICATION_TYPE": "U",
    "NORAD_CAT_ID": 40143,
    "ELEMENT_SET_NO": 999,
    "REV_AT_EPOCH": 59086,
    "BSTAR": 0.00059567,
    "MEAN_MOTION_DOT": 0.00014337,
    "MEAN_MOTION_DDOT": 0
  },
  {
    "OBJECT_NAME": "YAOGAN-22",
    "OBJECT_ID": "2014-063A",
    "EPOCH": "2025-04-21T18:48:08.237088",
    "MEAN_MOTION": 13.1550851,
    "ECCENTRICITY": 0.000678,
    "INCLINATION": 100.7074,
    "RA_OF_ASC_NODE": 252.2788,
    "ARG_OF_PERICENTER": 62.7627,
    "MEAN_ANOMALY": 297.4175,
    "EPHEMERIS_TYPE": 0,
    "CLASSIFICATION_TYPE": "U",
    "NORAD_CAT_ID": 40275,
    "ELEMENT_SET_NO": 999,
    "REV_AT_EPOCH": 50440,
    "BSTAR": 0.00011793,
    "MEAN_MOTION_DOT": -2e-8,
    "MEAN_MOTION_DDOT": 0
  },
  {
    "OBJECT_NAME": "ASNARO",
    "OBJECT_ID": "2014-070A",
    "EPOCH": "2025-04-22T04:21:46.465920",
    "MEAN_MOTION": 15.19891392,
    "ECCENTRICITY": 0.0007498,
    "INCLINATION": 97.3793,
    "RA_OF_ASC_NODE": 193.5511,
    "ARG_OF_PERICENTER": 160.5849,
    "MEAN_ANOMALY": 199.5673,
    "EPHEMERIS_TYPE": 0,
    "CLASSIFICATION_TYPE": "U",
    "NORAD_CAT_ID": 40298,
    "ELEMENT_SET_NO": 999,
    "REV_AT_EPOCH": 58009,
    "BSTAR": 0.000953,
    "MEAN_MOTION_DOT": 0.00020449,
    "MEAN_MOTION_DDOT": 0
  },
  {
    "OBJECT_NAME": "YAOGAN-24",
    "OBJECT_ID": "2014-072A",
    "EPOCH": "2025-04-22T05:07:24.180384",
    "MEAN_MOTION": 14.76085129,
    "ECCENTRICITY": 0.0014413,
    "INCLINATION": 98.0911,
    "RA_OF_ASC_NODE": 242.5069,
    "ARG_OF_PERICENTER": 172.6432,
    "MEAN_ANOMALY": 187.4991,
    "EPHEMERIS_TYPE": 0,
    "CLASSIFICATION_TYPE": "U",
    "NORAD_CAT_ID": 40310,
    "ELEMENT_SET_NO": 999,
    "REV_AT_EPOCH": 56163,
    "BSTAR": 0.0002823,
    "MEAN_MOTION_DOT": 0.00001898,
    "MEAN_MOTION_DDOT": 0
  },
  {
    "OBJECT_NAME": "CBERS 4",
    "OBJECT_ID": "2014-079A",
    "EPOCH": "2025-04-22T04:17:58.042464",
    "MEAN_MOTION": 14.35529507,
    "ECCENTRICITY": 0.0001955,
    "INCLINATION": 98.3568,
    "RA_OF_ASC_NODE": 177.7812,
    "ARG_OF_PERICENTER": 105.1084,
    "MEAN_ANOMALY": 255.0319,
    "EPHEMERIS_TYPE": 0,
    "CLASSIFICATION_TYPE": "U",
    "NORAD_CAT_ID": 40336,
    "ELEMENT_SET_NO": 999,
    "REV_AT_EPOCH": 54357,
    "BSTAR": 0.00010939,
    "MEAN_MOTION_DOT": 0.00000273,
    "MEAN_MOTION_DDOT": 0
  },
  {
    "OBJECT_NAME": "YAOGAN-26",
    "OBJECT_ID": "2014-088A",
    "EPOCH": "2025-04-22T05:00:15.573312",
    "MEAN_MOTION": 15.31265613,
    "ECCENTRICITY": 0.0008362,
    "INCLINATION": 97.0673,
    "RA_OF_ASC_NODE": 122.7165,
    "ARG_OF_PERICENTER": 121.4384,
    "MEAN_ANOMALY": 238.7676,
    "EPHEMERIS_TYPE": 0,
    "CLASSIFICATION_TYPE": "U",
    "NORAD_CAT_ID": 40362,
    "ELEMENT_SET_NO": 999,
    "REV_AT_EPOCH": 57442,
    "BSTAR": 0.00065936,
    "MEAN_MOTION_DOT": 0.00019889,
    "MEAN_MOTION_DDOT": 0
  },
  {
    "OBJECT_NAME": "SMAP",
    "OBJECT_ID": "2015-003A",
    "EPOCH": "2025-04-21T22:49:34.506912",
    "MEAN_MOTION": 14.63334853,
    "ECCENTRICITY": 0.0001167,
    "INCLINATION": 98.1296,
    "RA_OF_ASC_NODE": 119.984,
    "ARG_OF_PERICENTER": 98.5705,
    "MEAN_ANOMALY": 261.563,
    "EPHEMERIS_TYPE": 0,
    "CLASSIFICATION_TYPE": "U",
    "NORAD_CAT_ID": 40376,
    "ELEMENT_SET_NO": 999,
    "REV_AT_EPOCH": 54601,
    "BSTAR": 0.00023083,
    "MEAN_MOTION_DOT": 0.00001145,
    "MEAN_MOTION_DDOT": 0
  },
  {
    "OBJECT_NAME": "KOMPSAT-3A",
    "OBJECT_ID": "2015-014A",
    "EPOCH": "2025-04-22T03:53:43.914912",
    "MEAN_MOTION": 15.35162474,
    "ECCENTRICITY": 0.0001273,
    "INCLINATION": 97.6524,
    "RA_OF_ASC_NODE": 75.8035,
    "ARG_OF_PERICENTER": 33.8258,
    "MEAN_ANOMALY": 326.3065,
    "EPHEMERIS_TYPE": 0,
    "CLASSIFICATION_TYPE": "U",
    "NORAD_CAT_ID": 40536,
    "ELEMENT_SET_NO": 999,
    "REV_AT_EPOCH": 55689,
    "BSTAR": 0.00066665,
    "MEAN_MOTION_DOT": 0.00022709,
    "MEAN_MOTION_DDOT": 0
  },
  {
    "OBJECT_NAME": "SENTINEL-2A",
    "OBJECT_ID": "2015-028A",
    "EPOCH": "2025-04-22T03:58:37.790688",
    "MEAN_MOTION": 14.30814226,
    "ECCENTRICITY": 0.0001091,
    "INCLINATION": 98.5707,
    "RA_OF_ASC_NODE": 188.0361,
    "ARG_OF_PERICENTER": 97.9585,
    "MEAN_ANOMALY": 262.1721,
    "EPHEMERIS_TYPE": 0,
    "CLASSIFICATION_TYPE": "U",
    "NORAD_CAT_ID": 40697,
    "ELEMENT_SET_NO": 999,
    "REV_AT_EPOCH": 51352,
    "BSTAR": 0.00012385,
    "MEAN_MOTION_DOT": 0.00000281,
    "MEAN_MOTION_DDOT": 0
  },
  {
    "OBJECT_NAME": "GAOFEN-8",
    "OBJECT_ID": "2015-030A",
    "EPOCH": "2025-04-22T05:24:24.725088",
    "MEAN_MOTION": 15.3071207,
    "ECCENTRICITY": 0.0012141,
    "INCLINATION": 97.6858,
    "RA_OF_ASC_NODE": 280.6206,
    "ARG_OF_PERICENTER": 243.1701,
    "MEAN_ANOMALY": 116.8298,
    "EPHEMERIS_TYPE": 0,
    "CLASSIFICATION_TYPE": "U",
    "NORAD_CAT_ID": 40701,
    "ELEMENT_SET_NO": 999,
    "REV_AT_EPOCH": 54675,
    "BSTAR": 0.00089332,
    "MEAN_MOTION_DOT": 0.00026559,
    "MEAN_MOTION_DDOT": 0
  },
  {
    "OBJECT_NAME": "CARBONITE 1 (CBNT-1)",
    "OBJECT_ID": "2015-032D",
    "EPOCH": "2025-04-22T04:05:58.325280",
    "MEAN_MOTION": 14.81536258,
    "ECCENTRICITY": 0.0013849,
    "INCLINATION": 97.6463,
    "RA_OF_ASC_NODE": 303.7413,
    "ARG_OF_PERICENTER": 231.3657,
    "MEAN_ANOMALY": 128.6317,
    "EPHEMERIS_TYPE": 0,
    "CLASSIFICATION_TYPE": "U",
    "NORAD_CAT_ID": 40718,
    "ELEMENT_SET_NO": 999,
    "REV_AT_EPOCH": 52696,
    "BSTAR": 0.00046764,
    "MEAN_MOTION_DOT": 0.00003626,
    "MEAN_MOTION_DDOT": 0
  }
]