SKYSAT-B                
1 40072U 14037D   25111.73925951  .00002805  00000+0  32492-3 0  9996
2 40072  98.3396  43.6545 0005294 190.5600 169.5503 14.86355983583323
WORLDVIEW-3 (WV-3)      
1 40115U 14048A   25112.18454989  .00001917  00000+0  23059-3 0  9996
2 40115  97.8598 187.3012 0003850 268.0815  91.9959 14.85076859579452
GAOFEN-2                
1 40118U 14049A   25112.20661051  .00002070  00000+0  27659-3 0  9994
2 40118  98.0640 170.5785 0006650 131.2135 228.9651 14.80610500576959
YAOGAN-21               
1 40143U 14053A   25112.17020905  .00014337  00000+0  59567-3 0  9992
2 40143  97.2046 165.1189 0015528 185.7659 174.3403 15.23800971590861
YAOGAN-22               
1 40275U 14063A   25111.78342867 -.00000002  00000+0  11793-3 0  9993
2 40275 100.7074 252.2788 0006780  62.7627 297.4175 13.15508510504401
ASNARO                  
1 40298U 14070A   25112.18178780  .00020449  00000+0  95300-3 0  9994
2 40298  97.3793 193.5511 0007498 160.5849 199.5673 15.19891392580099
YAOGAN-24               
1 40310U 14072A   25112.21347431  .00001898  00000+0  28230-3 0  9991
2 40310  98.0911 242.5069 0014413 172.6432 187.4991 14.76085129561637
CBERS 4                 
1 40336U 14079A   25112.17914401  .00000273  00000+0  10939-3 0  9991
2 40336  98.3568 177.7812 0001955 105.1084 255.0319 14.35529507543579
YAOGAN-26               
1 40362U 14088A   25112.20851358  .00019889  00000+0  65936-3 0  9995
2 40362  97.0673 122.7165 0008362 121.4384 238.7676 15.31265613574429
SMAP                    
1 40376U 15003A   25111.95109383  .00001145  00000+0  23083-3 0  9996
2 40376  98.1296 119.9840 0001167  98.5705 261.5630 14.63334853546017
KOMPSAT-3A              
1 40536U 15014A   25112.16231383  .00022709  00000+0  66665-3 0  9998
2 40536  97.6524  75.8035 0001273  33.8258 326.3065 15.35162474556899
SENTINEL-2A             
1 40697U 15028A   25112.16571517  .00000281  00000+0  12385-3 0  9998
2 40697  98.5707 188.0361 0001091  97.9585 262.1721 14.30814226513523
GAOFEN-8                
1 40701U 15030A   25112.22528617  .00026559  00000+0  89332-3 0  9999
2 40701  97.6858 280.6206 0012141 243.1701 116.8298 15.30712070546756
CARBONITE 1 (CBNT-1)    
1 40718U 15032D   25112.17081395  .00003626  00000+0  46764-3 0  9992
2 40718  97.6463 303.7413 0013849 231.3657 128.6317 14.81536258526969
